{"type": "FeatureCollection", "features": [{"type": "Feature", "properties": {"fips": "12001", "name": "County 12001", "state": "FL"}, "geometry": {"type": "Polygon", "coordinates": [[[-87.6, 24.7], [-86.89999999999999, 24.7], [-86.89999999999999, 25.2], [-87.6, 25.2], [-87.6, 24.7]]]}}, {"type": "Feature", "properties": {"fips": "12003", "name": "County 12003", "state": "FL"}, "geometry": {"type": "Polygon", "coordinates": [[[-86.8, 24.7], [-86.1, 24.7], [-86.1, 25.2], [-86.8, 25.2], [-86.8, 24.7]]]}}, {"type": "Feature", "properties": {"fips": "12005", "name": "County 12005", "state": "FL"}, "geometry": {"type": "Polygon", "coordinates": [[[-86.0, 24.7], [-85.3, 24.7], [-85.3, 25.2], [-86.0, 25.2], [-86.0, 24.7]]]}}, {"type": "Feature", "properties": {"fips": "12007", "name": "County 12007", "state": "FL"}, "geometry": {"type": "Polygon", "coordinates": [[[-85.19999999999999, 24.7], [-84.49999999999999, 24.7], [-84.49999999999999, 25.2], [-85.19999999999999, 25.2], [-85.19999999999999, 24.7]]]}}, {"type": "Feature", "properties": {"fips": "12009", "name": "County 12009", "state": "FL"}, "geometry": {"type": "Polygon", "coordinates": [[[-84.39999999999999, 24.7], [-83.69999999999999, 24.7], [-83.69999999999999, 25.2], [-84.39999999999999, 25.2], [-84.39999999999999, 24.7]]]}}, {"type": "Feature", "properties": {"fips": "12011", "name": "County 12011", "state": "FL"}, "geometry": {"type": "Polygon", "coordinates": [[[-83.6, 24.7], [-82.89999999999999, 24.7], [-82.89999999999999, 25.2], [-83.6, 25.2], [-83.6, 24.7]]]}}, {"type": "Feature", "properties": {"fips": "12013", "name": "County 12013", "state": "FL"}, "geometry": {"type": "Polygon", "coordinates": [[[-82.8, 24.7], [-82.1, 24.7], [-82.1, 25.2], [-82.8, 25.2], [-82.8, 24.7]]]}}, {"type": "Feature", "properties": {"fips": "12015", "name": "County 12015", "state": "FL"}, "geometry": {"type": "Polygon", "coordinates": [[[-82.0, 24.7], [-81.3, 24.7], [-81.3, 25.2], [-82.0, 25.2], [-82.0, 24.7]]]}}, {"type": "Feature", "properties": {"fips": "12017", "name": "County 12017", "state": "FL"}, "geometry": {"type": "Polygon", "coordinates": [[[-81.19999999999999, 24.7], [-80.49999999999999, 24.7], [-80.49999999999999, 25.2], [-81.19999999999999, 25.2], [-81.19999999999999, 24.7]]]}}, {"type": "Feature", "properties": {"fips": "12019", "name": "County 12019", "state": "FL"}, "geometry": {"type": "Polygon", "coordinates": [[[-80.39999999999999, 24.7], [-79.69999999999999, 24.7], [-79.69999999999999, 25.2], [-80.39999999999999, 25.2], [-80.39999999999999, 24.7]]]}}, {"type": "Feature", "properties": {"fips": "12021", "name": "County 12021", "state": "FL"}, "geometry": {"type": "Polygon", "coordinates": [[[-87.6, 25.3], [-86.89999999999999, 25.3], [-86.89999999999999, 25.8], [-87.6, 25.8], [-87.6, 25.3]]]}}, {"type": "Feature", "properties": {"fips": "12023", "name": "County 12023", "state": "FL"}, "geometry": {"type": "Polygon", "coordinates": [[[-86.8, 25.3], [-86.1, 25.3], [-86.1, 25.8], [-86.8, 25.8], [-86.8, 25.3]]]}}, {"type": "Feature", "properties": {"fips": "12025", "name": "County 12025", "state": "FL"}, "geometry": {"type": "Polygon", "coordinates": [[[-86.0, 25.3], [-85.3, 25.3], [-85.3, 25.8], [-86.0, 25.8], [-86.0, 25.3]]]}}, {"type": "Feature", "properties": {"fips": "12027", "name": "County 12027", "state": "FL"}, "geometry": {"type": "Polygon", "coordinates": [[[-85.19999999999999, 25.3], [-84.49999999999999, 25.3], [-84.49999999999999, 25.8], [-85.19999999999999, 25.8], [-85.19999999999999, 25.3]]]}}, {"type": "Feature", "properties": {"fips": "12029", "name": "County 12029", "state": "FL"}, "geometry": {"type": "Polygon", "coordinates": [[[-84.39999999999999, 25.3], [-83.69999999999999, 25.3], [-83.69999999999999, 25.8], [-84.39999999999999, 25.8], [-84.39999999999999, 25.3]]]}}, {"type": "Feature", "properties": {"fips": "12031", "name": "County 12031", "state": "FL"}, "geometry": {"type": "Polygon", "coordinates": [[[-83.6, 25.3], [-82.89999999999999, 25.3], [-82.89999999999999, 25.8], [-83.6, 25.8], [-83.6, 25.3]]]}}, {"type": "Feature", "properties": {"fips": "12033", "name": "County 12033", "state": "FL"}, "geometry": {"type": "Polygon", "coordinates": [[[-82.8, 25.3], [-82.1, 25.3], [-82.1, 25.8], [-82.8, 25.8], [-82.8, 25.3]]]}}, {"type": "Feature", "properties": {"fips": "12035", "name": "County 12035", "state": "FL"}, "geometry": {"type": "Polygon", "coordinates": [[[-82.0, 25.3], [-81.3, 25.3], [-81.3, 25.8], [-82.0, 25.8], [-82.0, 25.3]]]}}, {"type": "Feature", "properties": {"fips": "12037", "name": "County 12037", "state": "FL"}, "geometry": {"type": "Polygon", "coordinates": [[[-81.19999999999999, 25.3], [-80.49999999999999, 25.3], [-80.49999999999999, 25.8], [-81.19999999999999, 25.8], [-81.19999999999999, 25.3]]]}}, {"type": "Feature", "properties": {"fips": "12039", "name": "County 12039", "state": "FL"}, "geometry": {"type": "Polygon", "coordinates": [[[-80.39999999999999, 25.3], [-79.69999999999999, 25.3], [-79.69999999999999, 25.8], [-80.39999999999999, 25.8], [-80.39999999999999, 25.3]]]}}, {"type": "Feature", "properties": {"fips": "12041", "name": "County 12041", "state": "FL"}, "geometry": {"type": "Polygon", "coordinates": [[[-87.6, 25.9], [-86.89999999999999, 25.9], [-86.89999999999999, 26.4], [-87.6, 26.4], [-87.6, 25.9]]]}}, {"type": "Feature", "properties": {"fips": "12043", "name": "County 12043", "state": "FL"}, "geometry": {"type": "Polygon", "coordinates": [[[-86.8, 25.9], [-86.1, 25.9], [-86.1, 26.4], [-86.8, 26.4], [-86.8, 25.9]]]}}, {"type": "Feature", "properties": {"fips": "12045", "name": "County 12045", "state": "FL"}, "geometry": {"type": "Polygon", "coordinates": [[[-86.0, 25.9], [-85.3, 25.9], [-85.3, 26.4], [-86.0, 26.4], [-86.0, 25.9]]]}}, {"type": "Feature", "properties": {"fips": "12047", "name": "County 12047", "state": "FL"}, "geometry": {"type": "Polygon", "coordinates": [[[-85.19999999999999, 25.9], [-84.49999999999999, 25.9], [-84.49999999999999, 26.4], [-85.19999999999999, 26.4], [-85.19999999999999, 25.9]]]}}, {"type": "Feature", "properties": {"fips": "12049", "name": "County 12049", "state": "FL"}, "geometry": {"type": "Polygon", "coordinates": [[[-84.39999999999999, 25.9], [-83.69999999999999, 25.9], [-83.69999999999999, 26.4], [-84.39999999999999, 26.4], [-84.39999999999999, 25.9]]]}}, {"type": "Feature", "properties": {"fips": "12051", "name": "County 12051", "state": "FL"}, "geometry": {"type": "Polygon", "coordinates": [[[-83.6, 25.9], [-82.89999999999999, 25.9], [-82.89999999999999, 26.4], [-83.6, 26.4], [-83.6, 25.9]]]}}, {"type": "Feature", "properties": {"fips": "12053", "name": "County 12053", "state": "FL"}, "geometry": {"type": "Polygon", "coordinates": [[[-82.8, 25.9], [-82.1, 25.9], [-82.1, 26.4], [-82.8, 26.4], [-82.8, 25.9]]]}}, {"type": "Feature", "properties": {"fips": "12055", "name": "County 12055", "state": "FL"}, "geometry": {"type": "Polygon", "coordinates": [[[-82.0, 25.9], [-81.3, 25.9], [-81.3, 26.4], [-82.0, 26.4], [-82.0, 25.9]]]}}, {"type": "Feature", "properties": {"fips": "12057", "name": "County 12057", "state": "FL"}, "geometry": {"type": "Polygon", "coordinates": [[[-81.19999999999999, 25.9], [-80.49999999999999, 25.9], [-80.49999999999999, 26.4], [-81.19999999999999, 26.4], [-81.19999999999999, 25.9]]]}}, {"type": "Feature", "properties": {"fips": "12059", "name": "County 12059", "state": "FL"}, "geometry": {"type": "Polygon", "coordinates": [[[-80.39999999999999, 25.9], [-79.69999999999999, 25.9], [-79.69999999999999, 26.4], [-80.39999999999999, 26.4], [-80.39999999999999, 25.9]]]}}, {"type": "Feature", "properties": {"fips": "12061", "name": "County 12061", "state": "FL"}, "geometry": {"type": "Polygon", "coordinates": [[[-87.6, 26.5], [-86.89999999999999, 26.5], [-86.89999999999999, 27.0], [-87.6, 27.0], [-87.6, 26.5]]]}}, {"type": "Feature", "properties": {"fips": "12063", "name": "County 12063", "state": "FL"}, "geometry": {"type": "Polygon", "coordinates": [[[-86.8, 26.5], [-86.1, 26.5], [-86.1, 27.0], [-86.8, 27.0], [-86.8, 26.5]]]}}, {"type": "Feature", "properties": {"fips": "12065", "name": "County 12065", "state": "FL"}, "geometry": {"type": "Polygon", "coordinates": [[[-86.0, 26.5], [-85.3, 26.5], [-85.3, 27.0], [-86.0, 27.0], [-86.0, 26.5]]]}}, {"type": "Feature", "properties": {"fips": "12067", "name": "County 12067", "state": "FL"}, "geometry": {"type": "Polygon", "coordinates": [[[-85.19999999999999, 26.5], [-84.49999999999999, 26.5], [-84.49999999999999, 27.0], [-85.19999999999999, 27.0], [-85.19999999999999, 26.5]]]}}, {"type": "Feature", "properties": {"fips": "12069", "name": "Lake County", "state": "FL"}, "geometry": {"type": "Polygon", "coordinates": [[[-84.39999999999999, 26.5], [-83.69999999999999, 26.5], [-83.69999999999999, 27.0], [-84.39999999999999, 27.0], [-84.39999999999999, 26.5]]]}}, {"type": "Feature", "properties": {"fips": "12071", "name": "County 12071", "state": "FL"}, "geometry": {"type": "Polygon", "coordinates": [[[-83.6, 26.5], [-82.89999999999999, 26.5], [-82.89999999999999, 27.0], [-83.6, 27.0], [-83.6, 26.5]]]}}, {"type": "Feature", "properties": {"fips": "12073", "name": "County 12073", "state": "FL"}, "geometry": {"type": "Polygon", "coordinates": [[[-82.8, 26.5], [-82.1, 26.5], [-82.1, 27.0], [-82.8, 27.0], [-82.8, 26.5]]]}}, {"type": "Feature", "properties": {"fips": "12075", "name": "County 12075", "state": "FL"}, "geometry": {"type": "Polygon", "coordinates": [[[-82.0, 26.5], [-81.3, 26.5], [-81.3, 27.0], [-82.0, 27.0], [-82.0, 26.5]]]}}, {"type": "Feature", "properties": {"fips": "12077", "name": "County 12077", "state": "FL"}, "geometry": {"type": "Polygon", "coordinates": [[[-81.19999999999999, 26.5], [-80.49999999999999, 26.5], [-80.49999999999999, 27.0], [-81.19999999999999, 27.0], [-81.19999999999999, 26.5]]]}}, {"type": "Feature", "properties": {"fips": "12079", "name": "County 12079", "state": "FL"}, "geometry": {"type": "Polygon", "coordinates": [[[-80.39999999999999, 26.5], [-79.69999999999999, 26.5], [-79.69999999999999, 27.0], [-80.39999999999999, 27.0], [-80.39999999999999, 26.5]]]}}, {"type": "Feature", "properties": {"fips": "12081", "name": "County 12081", "state": "FL"}, "geometry": {"type": "Polygon", "coordinates": [[[-87.6, 27.099999999999998], [-86.89999999999999, 27.099999999999998], [-86.89999999999999, 27.599999999999998], [-87.6, 27.599999999999998], [-87.6, 27.099999999999998]]]}}, {"type": "Feature", "properties": {"fips": "12083", "name": "County 12083", "state": "FL"}, "geometry": {"type": "Polygon", "coordinates": [[[-86.8, 27.099999999999998], [-86.1, 27.099999999999998], [-86.1, 27.599999999999998], [-86.8, 27.599999999999998], [-86.8, 27.099999999999998]]]}}, {"type": "Feature", "properties": {"fips": "12085", "name": "County 12085", "state": "FL"}, "geometry": {"type": "Polygon", "coordinates": [[[-86.0, 27.099999999999998], [-85.3, 27.099999999999998], [-85.3, 27.599999999999998], [-86.0, 27.599999999999998], [-86.0, 27.099999999999998]]]}}, {"type": "Feature", "properties": {"fips": "12087", "name": "County 12087", "state": "FL"}, "geometry": {"type": "Polygon", "coordinates": [[[-85.19999999999999, 27.099999999999998], [-84.49999999999999, 27.099999999999998], [-84.49999999999999, 27.599999999999998], [-85.19999999999999, 27.599999999999998], [-85.19999999999999, 27.099999999999998]]]}}, {"type": "Feature", "properties": {"fips": "12089", "name": "County 12089", "state": "FL"}, "geometry": {"type": "Polygon", "coordinates": [[[-84.39999999999999, 27.099999999999998], [-83.69999999999999, 27.099999999999998], [-83.69999999999999, 27.599999999999998], [-84.39999999999999, 27.599999999999998], [-84.39999999999999, 27.099999999999998]]]}}, {"type": "Feature", "properties": {"fips": "12091", "name": "County 12091", "state": "FL"}, "geometry": {"type": "Polygon", "coordinates": [[[-83.6, 27.099999999999998], [-82.89999999999999, 27.099999999999998], [-82.89999999999999, 27.599999999999998], [-83.6, 27.599999999999998], [-83.6, 27.099999999999998]]]}}, {"type": "Feature", "properties": {"fips": "12093", "name": "County 12093", "state": "FL"}, "geometry": {"type": "Polygon", "coordinates": [[[-82.8, 27.099999999999998], [-82.1, 27.099999999999998], [-82.1, 27.599999999999998], [-82.8, 27.599999999999998], [-82.8, 27.099999999999998]]]}}, {"type": "Feature", "properties": {"fips": "12095", "name": "Orange County", "state": "FL"}, "geometry": {"type": "Polygon", "coordinates": [[[-82.0, 27.099999999999998], [-81.3, 27.099999999999998], [-81.3, 27.599999999999998], [-82.0, 27.599999999999998], [-82.0, 27.099999999999998]]]}}, {"type": "Feature", "properties": {"fips": "12097", "name": "Osceola County", "state": "FL"}, "geometry": {"type": "Polygon", "coordinates": [[[-81.19999999999999, 27.099999999999998], [-80.49999999999999, 27.099999999999998], [-80.49999999999999, 27.599999999999998], [-81.19999999999999, 27.599999999999998], [-81.19999999999999, 27.099999999999998]]]}}, {"type": "Feature", "properties": {"fips": "12099", "name": "County 12099", "state": "FL"}, "geometry": {"type": "Polygon", "coordinates": [[[-80.39999999999999, 27.099999999999998], [-79.69999999999999, 27.099999999999998], [-79.69999999999999, 27.599999999999998], [-80.39999999999999, 27.599999999999998], [-80.39999999999999, 27.099999999999998]]]}}, {"type": "Feature", "properties": {"fips": "12101", "name": "County 12101", "state": "FL"}, "geometry": {"type": "Polygon", "coordinates": [[[-87.6, 27.7], [-86.89999999999999, 27.7], [-86.89999999999999, 28.2], [-87.6, 28.2], [-87.6, 27.7]]]}}, {"type": "Feature", "properties": {"fips": "12103", "name": "County 12103", "state": "FL"}, "geometry": {"type": "Polygon", "coordinates": [[[-86.8, 27.7], [-86.1, 27.7], [-86.1, 28.2], [-86.8, 28.2], [-86.8, 27.7]]]}}, {"type": "Feature", "properties": {"fips": "12105", "name": "Polk County", "state": "FL"}, "geometry": {"type": "Polygon", "coordinates": [[[-86.0, 27.7], [-85.3, 27.7], [-85.3, 28.2], [-86.0, 28.2], [-86.0, 27.7]]]}}, {"type": "Feature", "properties": {"fips": "12107", "name": "County 12107", "state": "FL"}, "geometry": {"type": "Polygon", "coordinates": [[[-85.19999999999999, 27.7], [-84.49999999999999, 27.7], [-84.49999999999999, 28.2], [-85.19999999999999, 28.2], [-85.19999999999999, 27.7]]]}}, {"type": "Feature", "properties": {"fips": "12109", "name": "County 12109", "state": "FL"}, "geometry": {"type": "Polygon", "coordinates": [[[-84.39999999999999, 27.7], [-83.69999999999999, 27.7], [-83.69999999999999, 28.2], [-84.39999999999999, 28.2], [-84.39999999999999, 27.7]]]}}, {"type": "Feature", "properties": {"fips": "12111", "name": "County 12111", "state": "FL"}, "geometry": {"type": "Polygon", "coordinates": [[[-83.6, 27.7], [-82.89999999999999, 27.7], [-82.89999999999999, 28.2], [-83.6, 28.2], [-83.6, 27.7]]]}}, {"type": "Feature", "properties": {"fips": "12113", "name": "County 12113", "state": "FL"}, "geometry": {"type": "Polygon", "coordinates": [[[-82.8, 27.7], [-82.1, 27.7], [-82.1, 28.2], [-82.8, 28.2], [-82.8, 27.7]]]}}, {"type": "Feature", "properties": {"fips": "12115", "name": "County 12115", "state": "FL"}, "geometry": {"type": "Polygon", "coordinates": [[[-82.0, 27.7], [-81.3, 27.7], [-81.3, 28.2], [-82.0, 28.2], [-82.0, 27.7]]]}}, {"type": "Feature", "properties": {"fips": "12117", "name": "Seminole County", "state": "FL"}, "geometry": {"type": "Polygon", "coordinates": [[[-81.19999999999999, 27.7], [-80.49999999999999, 27.7], [-80.49999999999999, 28.2], [-81.19999999999999, 28.2], [-81.19999999999999, 27.7]]]}}, {"type": "Feature", "properties": {"fips": "12119", "name": "County 12119", "state": "FL"}, "geometry": {"type": "Polygon", "coordinates": [[[-80.39999999999999, 27.7], [-79.69999999999999, 27.7], [-79.69999999999999, 28.2], [-80.39999999999999, 28.2], [-80.39999999999999, 27.7]]]}}, {"type": "Feature", "properties": {"fips": "12121", "name": "County 12121", "state": "FL"}, "geometry": {"type": "Polygon", "coordinates": [[[-87.6, 28.299999999999997], [-86.89999999999999, 28.299999999999997], [-86.89999999999999, 28.799999999999997], [-87.6, 28.799999999999997], [-87.6, 28.299999999999997]]]}}, {"type": "Feature", "properties": {"fips": "12123", "name": "County 12123", "state": "FL"}, "geometry": {"type": "Polygon", "coordinates": [[[-86.8, 28.299999999999997], [-86.1, 28.299999999999997], [-86.1, 28.799999999999997], [-86.8, 28.799999999999997], [-86.8, 28.299999999999997]]]}}, {"type": "Feature", "properties": {"fips": "12125", "name": "County 12125", "state": "FL"}, "geometry": {"type": "Polygon", "coordinates": [[[-86.0, 28.299999999999997], [-85.3, 28.299999999999997], [-85.3, 28.799999999999997], [-86.0, 28.799999999999997], [-86.0, 28.299999999999997]]]}}, {"type": "Feature", "properties": {"fips": "12127", "name": "County 12127", "state": "FL"}, "geometry": {"type": "Polygon", "coordinates": [[[-85.19999999999999, 28.299999999999997], [-84.49999999999999, 28.299999999999997], [-84.49999999999999, 28.799999999999997], [-85.19999999999999, 28.799999999999997], [-85.19999999999999, 28.299999999999997]]]}}, {"type": "Feature", "properties": {"fips": "12129", "name": "County 12129", "state": "FL"}, "geometry": {"type": "Polygon", "coordinates": [[[-84.39999999999999, 28.299999999999997], [-83.69999999999999, 28.299999999999997], [-83.69999999999999, 28.799999999999997], [-84.39999999999999, 28.799999999999997], [-84.39999999999999, 28.299999999999997]]]}}, {"type": "Feature", "properties": {"fips": "12131", "name": "County 12131", "state": "FL"}, "geometry": {"type": "Polygon", "coordinates": [[[-83.6, 28.299999999999997], [-82.89999999999999, 28.299999999999997], [-82.89999999999999, 28.799999999999997], [-83.6, 28.799999999999997], [-83.6, 28.299999999999997]]]}}, {"type": "Feature", "properties": {"fips": "12133", "name": "County 12133", "state": "FL"}, "geometry": {"type": "Polygon", "coordinates": [[[-82.8, 28.299999999999997], [-82.1, 28.299999999999997], [-82.1, 28.799999999999997], [-82.8, 28.799999999999997], [-82.8, 28.299999999999997]]]}}, {"type": "Feature", "properties": {"fips": "13001", "name": "County 13001", "state": "GA"}, "geometry": {"type": "Polygon", "coordinates": [[[-85.7, 30.4], [-85.3, 30.4], [-85.3, 30.75], [-85.7, 30.75], [-85.7, 30.4]]]}}, {"type": "Feature", "properties": {"fips": "13003", "name": "County 13003", "state": "GA"}, "geometry": {"type": "Polygon", "coordinates": [[[-85.25, 30.4], [-84.85, 30.4], [-84.85, 30.75], [-85.25, 30.75], [-85.25, 30.4]]]}}, {"type": "Feature", "properties": {"fips": "13005", "name": "County 13005", "state": "GA"}, "geometry": {"type": "Polygon", "coordinates": [[[-84.8, 30.4], [-84.39999999999999, 30.4], [-84.39999999999999, 30.75], [-84.8, 30.75], [-84.8, 30.4]]]}}, {"type": "Feature", "properties": {"fips": "13007", "name": "County 13007", "state": "GA"}, "geometry": {"type": "Polygon", "coordinates": [[[-84.35000000000001, 30.4], [-83.95, 30.4], [-83.95, 30.75], [-84.35000000000001, 30.75], [-84.35000000000001, 30.4]]]}}, {"type": "Feature", "properties": {"fips": "13009", "name": "County 13009", "state": "GA"}, "geometry": {"type": "Polygon", "coordinates": [[[-83.9, 30.4], [-83.5, 30.4], [-83.5, 30.75], [-83.9, 30.75], [-83.9, 30.4]]]}}, {"type": "Feature", "properties": {"fips": "13011", "name": "County 13011", "state": "GA"}, "geometry": {"type": "Polygon", "coordinates": [[[-83.45, 30.4], [-83.05, 30.4], [-83.05, 30.75], [-83.45, 30.75], [-83.45, 30.4]]]}}, {"type": "Feature", "properties": {"fips": "13013", "name": "County 13013", "state": "GA"}, "geometry": {"type": "Polygon", "coordinates": [[[-83.0, 30.4], [-82.6, 30.4], [-82.6, 30.75], [-83.0, 30.75], [-83.0, 30.4]]]}}, {"type": "Feature", "properties": {"fips": "13015", "name": "County 13015", "state": "GA"}, "geometry": {"type": "Polygon", "coordinates": [[[-82.55, 30.4], [-82.14999999999999, 30.4], [-82.14999999999999, 30.75], [-82.55, 30.75], [-82.55, 30.4]]]}}, {"type": "Feature", "properties": {"fips": "13017", "name": "County 13017", "state": "GA"}, "geometry": {"type": "Polygon", "coordinates": [[[-82.10000000000001, 30.4], [-81.7, 30.4], [-81.7, 30.75], [-82.10000000000001, 30.75], [-82.10000000000001, 30.4]]]}}, {"type": "Feature", "properties": {"fips": "13019", "name": "County 13019", "state": "GA"}, "geometry": {"type": "Polygon", "coordinates": [[[-81.65, 30.4], [-81.25, 30.4], [-81.25, 30.75], [-81.65, 30.75], [-81.65, 30.4]]]}}, {"type": "Feature", "properties": {"fips": "13021", "name": "County 13021", "state": "GA"}, "geometry": {"type": "Polygon", "coordinates": [[[-81.2, 30.4], [-80.8, 30.4], [-80.8, 30.75], [-81.2, 30.75], [-81.2, 30.4]]]}}, {"type": "Feature", "properties": {"fips": "13023", "name": "County 13023", "state": "GA"}, "geometry": {"type": "Polygon", "coordinates": [[[-80.75, 30.4], [-80.35, 30.4], [-80.35, 30.75], [-80.75, 30.75], [-80.75, 30.4]]]}}, {"type": "Feature", "properties": {"fips": "13025", "name": "County 13025", "state": "GA"}, "geometry": {"type": "Polygon", "coordinates": [[[-80.3, 30.4], [-79.89999999999999, 30.4], [-79.89999999999999, 30.75], [-80.3, 30.75], [-80.3, 30.4]]]}}, {"type": "Feature", "properties": {"fips": "13027", "name": "County 13027", "state": "GA"}, "geometry": {"type": "Polygon", "coordinates": [[[-79.85000000000001, 30.4], [-79.45, 30.4], [-79.45, 30.75], [-79.85000000000001, 30.75], [-79.85000000000001, 30.4]]]}}, {"type": "Feature", "properties": {"fips": "13029", "name": "County 13029", "state": "GA"}, "geometry": {"type": "Polygon", "coordinates": [[[-79.4, 30.4], [-79.0, 30.4], [-79.0, 30.75], [-79.4, 30.75], [-79.4, 30.4]]]}}, {"type": "Feature", "properties": {"fips": "13031", "name": "County 13031", "state": "GA"}, "geometry": {"type": "Polygon", "coordinates": [[[-78.95, 30.4], [-78.55, 30.4], [-78.55, 30.75], [-78.95, 30.75], [-78.95, 30.4]]]}}, {"type": "Feature", "properties": {"fips": "13033", "name": "County 13033", "state": "GA"}, "geometry": {"type": "Polygon", "coordinates": [[[-85.7, 30.849999999999998], [-85.3, 30.849999999999998], [-85.3, 31.2], [-85.7, 31.2], [-85.7, 30.849999999999998]]]}}, {"type": "Feature", "properties": {"fips": "13035", "name": "County 13035", "state": "GA"}, "geometry": {"type": "Polygon", "coordinates": [[[-85.25, 30.849999999999998], [-84.85, 30.849999999999998], [-84.85, 31.2], [-85.25, 31.2], [-85.25, 30.849999999999998]]]}}, {"type": "Feature", "properties": {"fips": "13037", "name": "County 13037", "state": "GA"}, "geometry": {"type": "Polygon", "coordinates": [[[-84.8, 30.849999999999998], [-84.39999999999999, 30.849999999999998], [-84.39999999999999, 31.2], [-84.8, 31.2], [-84.8, 30.849999999999998]]]}}, {"type": "Feature", "properties": {"fips": "13039", "name": "County 13039", "state": "GA"}, "geometry": {"type": "Polygon", "coordinates": [[[-84.35000000000001, 30.849999999999998], [-83.95, 30.849999999999998], [-83.95, 31.2], [-84.35000000000001, 31.2], [-84.35000000000001, 30.849999999999998]]]}}, {"type": "Feature", "properties": {"fips": "13041", "name": "County 13041", "state": "GA"}, "geometry": {"type": "Polygon", "coordinates": [[[-83.9, 30.849999999999998], [-83.5, 30.849999999999998], [-83.5, 31.2], [-83.9, 31.2], [-83.9, 30.849999999999998]]]}}, {"type": "Feature", "properties": {"fips": "13043", "name": "County 13043", "state": "GA"}, "geometry": {"type": "Polygon", "coordinates": [[[-83.45, 30.849999999999998], [-83.05, 30.849999999999998], [-83.05, 31.2], [-83.45, 31.2], [-83.45, 30.849999999999998]]]}}, {"type": "Feature", "properties": {"fips": "13045", "name": "County 13045", "state": "GA"}, "geometry": {"type": "Polygon", "coordinates": [[[-83.0, 30.849999999999998], [-82.6, 30.849999999999998], [-82.6, 31.2], [-83.0, 31.2], [-83.0, 30.849999999999998]]]}}, {"type": "Feature", "properties": {"fips": "13047", "name": "County 13047", "state": "GA"}, "geometry": {"type": "Polygon", "coordinates": [[[-82.55, 30.849999999999998], [-82.14999999999999, 30.849999999999998], [-82.14999999999999, 31.2], [-82.55, 31.2], [-82.55, 30.849999999999998]]]}}, {"type": "Feature", "properties": {"fips": "13049", "name": "County 13049", "state": "GA"}, "geometry": {"type": "Polygon", "coordinates": [[[-82.10000000000001, 30.849999999999998], [-81.7, 30.849999999999998], [-81.7, 31.2], [-82.10000000000001, 31.2], [-82.10000000000001, 30.849999999999998]]]}}, {"type": "Feature", "properties": {"fips": "13051", "name": "County 13051", "state": "GA"}, "geometry": {"type": "Polygon", "coordinates": [[[-81.65, 30.849999999999998], [-81.25, 30.849999999999998], [-81.25, 31.2], [-81.65, 31.2], [-81.65, 30.849999999999998]]]}}, {"type": "Feature", "properties": {"fips": "13053", "name": "County 13053", "state": "GA"}, "geometry": {"type": "Polygon", "coordinates": [[[-81.2, 30.849999999999998], [-80.8, 30.849999999999998], [-80.8, 31.2], [-81.2, 31.2], [-81.2, 30.849999999999998]]]}}, {"type": "Feature", "properties": {"fips": "13055", "name": "County 13055", "state": "GA"}, "geometry": {"type": "Polygon", "coordinates": [[[-80.75, 30.849999999999998], [-80.35, 30.849999999999998], [-80.35, 31.2], [-80.75, 31.2], [-80.75, 30.849999999999998]]]}}, {"type": "Feature", "properties": {"fips": "13057", "name": "Cherokee County", "state": "GA"}, "geometry": {"type": "Polygon", "coordinates": [[[-80.3, 30.849999999999998], [-79.89999999999999, 30.849999999999998], [-79.89999999999999, 31.2], [-80.3, 31.2], [-80.3, 30.849999999999998]]]}}, {"type": "Feature", "properties": {"fips": "13059", "name": "County 13059", "state": "GA"}, "geometry": {"type": "Polygon", "coordinates": [[[-79.85000000000001, 30.849999999999998], [-79.45, 30.849999999999998], [-79.45, 31.2], [-79.85000000000001, 31.2], [-79.85000000000001, 30.849999999999998]]]}}, {"type": "Feature", "properties": {"fips": "13061", "name": "County 13061", "state": "GA"}, "geometry": {"type": "Polygon", "coordinates": [[[-79.4, 30.849999999999998], [-79.0, 30.849999999999998], [-79.0, 31.2], [-79.4, 31.2], [-79.4, 30.849999999999998]]]}}, {"type": "Feature", "properties": {"fips": "13063", "name": "County 13063", "state": "GA"}, "geometry": {"type": "Polygon", "coordinates": [[[-78.95, 30.849999999999998], [-78.55, 30.849999999999998], [-78.55, 31.2], [-78.95, 31.2], [-78.95, 30.849999999999998]]]}}, {"type": "Feature", "properties": {"fips": "13065", "name": "County 13065", "state": "GA"}, "geometry": {"type": "Polygon", "coordinates": [[[-85.7, 31.299999999999997], [-85.3, 31.299999999999997], [-85.3, 31.65], [-85.7, 31.65], [-85.7, 31.299999999999997]]]}}, {"type": "Feature", "properties": {"fips": "13067", "name": "Cobb County", "state": "GA"}, "geometry": {"type": "Polygon", "coordinates": [[[-85.25, 31.299999999999997], [-84.85, 31.299999999999997], [-84.85, 31.65], [-85.25, 31.65], [-85.25, 31.299999999999997]]]}}, {"type": "Feature", "properties": {"fips": "13069", "name": "County 13069", "state": "GA"}, "geometry": {"type": "Polygon", "coordinates": [[[-84.8, 31.299999999999997], [-84.39999999999999, 31.299999999999997], [-84.39999999999999, 31.65], [-84.8, 31.65], [-84.8, 31.299999999999997]]]}}, {"type": "Feature", "properties": {"fips": "13071", "name": "County 13071", "state": "GA"}, "geometry": {"type": "Polygon", "coordinates": [[[-84.35000000000001, 31.299999999999997], [-83.95, 31.299999999999997], [-83.95, 31.65], [-84.35000000000001, 31.65], [-84.35000000000001, 31.299999999999997]]]}}, {"type": "Feature", "properties": {"fips": "13073", "name": "County 13073", "state": "GA"}, "geometry": {"type": "Polygon", "coordinates": [[[-83.9, 31.299999999999997], [-83.5, 31.299999999999997], [-83.5, 31.65], [-83.9, 31.65], [-83.9, 31.299999999999997]]]}}, {"type": "Feature", "properties": {"fips": "13075", "name": "County 13075", "state": "GA"}, "geometry": {"type": "Polygon", "coordinates": [[[-83.45, 31.299999999999997], [-83.05, 31.299999999999997], [-83.05, 31.65], [-83.45, 31.65], [-83.45, 31.299999999999997]]]}}, {"type": "Feature", "properties": {"fips": "13077", "name": "County 13077", "state": "GA"}, "geometry": {"type": "Polygon", "coordinates": [[[-83.0, 31.299999999999997], [-82.6, 31.299999999999997], [-82.6, 31.65], [-83.0, 31.65], [-83.0, 31.299999999999997]]]}}, {"type": "Feature", "properties": {"fips": "13079", "name": "County 13079", "state": "GA"}, "geometry": {"type": "Polygon", "coordinates": [[[-82.55, 31.299999999999997], [-82.14999999999999, 31.299999999999997], [-82.14999999999999, 31.65], [-82.55, 31.65], [-82.55, 31.299999999999997]]]}}, {"type": "Feature", "properties": {"fips": "13081", "name": "County 13081", "state": "GA"}, "geometry": {"type": "Polygon", "coordinates": [[[-82.10000000000001, 31.299999999999997], [-81.7, 31.299999999999997], [-81.7, 31.65], [-82.10000000000001, 31.65], [-82.10000000000001, 31.299999999999997]]]}}, {"type": "Feature", "properties": {"fips": "13083", "name": "County 13083", "state": "GA"}, "geometry": {"type": "Polygon", "coordinates": [[[-81.65, 31.299999999999997], [-81.25, 31.299999999999997], [-81.25, 31.65], [-81.65, 31.65], [-81.65, 31.299999999999997]]]}}, {"type": "Feature", "properties": {"fips": "13085", "name": "County 13085", "state": "GA"}, "geometry": {"type": "Polygon", "coordinates": [[[-81.2, 31.299999999999997], [-80.8, 31.299999999999997], [-80.8, 31.65], [-81.2, 31.65], [-81.2, 31.299999999999997]]]}}, {"type": "Feature", "properties": {"fips": "13087", "name": "County 13087", "state": "GA"}, "geometry": {"type": "Polygon", "coordinates": [[[-80.75, 31.299999999999997], [-80.35, 31.299999999999997], [-80.35, 31.65], [-80.75, 31.65], [-80.75, 31.299999999999997]]]}}, {"type": "Feature", "properties": {"fips": "13089", "name": "County 13089", "state": "GA"}, "geometry": {"type": "Polygon", "coordinates": [[[-80.3, 31.299999999999997], [-79.89999999999999, 31.299999999999997], [-79.89999999999999, 31.65], [-80.3, 31.65], [-80.3, 31.299999999999997]]]}}, {"type": "Feature", "properties": {"fips": "13091", "name": "County 13091", "state": "GA"}, "geometry": {"type": "Polygon", "coordinates": [[[-79.85000000000001, 31.299999999999997], [-79.45, 31.299999999999997], [-79.45, 31.65], [-79.85000000000001, 31.65], [-79.85000000000001, 31.299999999999997]]]}}, {"type": "Feature", "properties": {"fips": "13093", "name": "County 13093", "state": "GA"}, "geometry": {"type": "Polygon", "coordinates": [[[-79.4, 31.299999999999997], [-79.0, 31.299999999999997], [-79.0, 31.65], [-79.4, 31.65], [-79.4, 31.299999999999997]]]}}, {"type": "Feature", "properties": {"fips": "13095", "name": "County 13095", "state": "GA"}, "geometry": {"type": "Polygon", "coordinates": [[[-78.95, 31.299999999999997], [-78.55, 31.299999999999997], [-78.55, 31.65], [-78.95, 31.65], [-78.95, 31.299999999999997]]]}}, {"type": "Feature", "properties": {"fips": "13097", "name": "County 13097", "state": "GA"}, "geometry": {"type": "Polygon", "coordinates": [[[-85.7, 31.75], [-85.3, 31.75], [-85.3, 32.1], [-85.7, 32.1], [-85.7, 31.75]]]}}, {"type": "Feature", "properties": {"fips": "13099", "name": "County 13099", "state": "GA"}, "geometry": {"type": "Polygon", "coordinates": [[[-85.25, 31.75], [-84.85, 31.75], [-84.85, 32.1], [-85.25, 32.1], [-85.25, 31.75]]]}}, {"type": "Feature", "properties": {"fips": "13101", "name": "County 13101", "state": "GA"}, "geometry": {"type": "Polygon", "coordinates": [[[-84.8, 31.75], [-84.39999999999999, 31.75], [-84.39999999999999, 32.1], [-84.8, 32.1], [-84.8, 31.75]]]}}, {"type": "Feature", "properties": {"fips": "13103", "name": "County 13103", "state": "GA"}, "geometry": {"type": "Polygon", "coordinates": [[[-84.35000000000001, 31.75], [-83.95, 31.75], [-83.95, 32.1], [-84.35000000000001, 32.1], [-84.35000000000001, 31.75]]]}}, {"type": "Feature", "properties": {"fips": "13105", "name": "County 13105", "state": "GA"}, "geometry": {"type": "Polygon", "coordinates": [[[-83.9, 31.75], [-83.5, 31.75], [-83.5, 32.1], [-83.9, 32.1], [-83.9, 31.75]]]}}, {"type": "Feature", "properties": {"fips": "13107", "name": "County 13107", "state": "GA"}, "geometry": {"type": "Polygon", "coordinates": [[[-83.45, 31.75], [-83.05, 31.75], [-83.05, 32.1], [-83.45, 32.1], [-83.45, 31.75]]]}}, {"type": "Feature", "properties": {"fips": "13109", "name": "County 13109", "state": "GA"}, "geometry": {"type": "Polygon", "coordinates": [[[-83.0, 31.75], [-82.6, 31.75], [-82.6, 32.1], [-83.0, 32.1], [-83.0, 31.75]]]}}, {"type": "Feature", "properties": {"fips": "13111", "name": "County 13111", "state": "GA"}, "geometry": {"type": "Polygon", "coordinates": [[[-82.55, 31.75], [-82.14999999999999, 31.75], [-82.14999999999999, 32.1], [-82.55, 32.1], [-82.55, 31.75]]]}}, {"type": "Feature", "properties": {"fips": "13113", "name": "County 13113", "state": "GA"}, "geometry": {"type": "Polygon", "coordinates": [[[-82.10000000000001, 31.75], [-81.7, 31.75], [-81.7, 32.1], [-82.10000000000001, 32.1], [-82.10000000000001, 31.75]]]}}, {"type": "Feature", "properties": {"fips": "13115", "name": "County 13115", "state": "GA"}, "geometry": {"type": "Polygon", "coordinates": [[[-81.65, 31.75], [-81.25, 31.75], [-81.25, 32.1], [-81.65, 32.1], [-81.65, 31.75]]]}}, {"type": "Feature", "properties": {"fips": "13117", "name": "Forsyth County", "state": "GA"}, "geometry": {"type": "Polygon", "coordinates": [[[-81.2, 31.75], [-80.8, 31.75], [-80.8, 32.1], [-81.2, 32.1], [-81.2, 31.75]]]}}, {"type": "Feature", "properties": {"fips": "13119", "name": "County 13119", "state": "GA"}, "geometry": {"type": "Polygon", "coordinates": [[[-80.75, 31.75], [-80.35, 31.75], [-80.35, 32.1], [-80.75, 32.1], [-80.75, 31.75]]]}}, {"type": "Feature", "properties": {"fips": "13121", "name": "Fulton County", "state": "GA"}, "geometry": {"type": "Polygon", "coordinates": [[[-80.3, 31.75], [-79.89999999999999, 31.75], [-79.89999999999999, 32.1], [-80.3, 32.1], [-80.3, 31.75]]]}}, {"type": "Feature", "properties": {"fips": "13123", "name": "County 13123", "state": "GA"}, "geometry": {"type": "Polygon", "coordinates": [[[-79.85000000000001, 31.75], [-79.45, 31.75], [-79.45, 32.1], [-79.85000000000001, 32.1], [-79.85000000000001, 31.75]]]}}, {"type": "Feature", "properties": {"fips": "13125", "name": "County 13125", "state": "GA"}, "geometry": {"type": "Polygon", "coordinates": [[[-79.4, 31.75], [-79.0, 31.75], [-79.0, 32.1], [-79.4, 32.1], [-79.4, 31.75]]]}}, {"type": "Feature", "properties": {"fips": "13127", "name": "County 13127", "state": "GA"}, "geometry": {"type": "Polygon", "coordinates": [[[-78.95, 31.75], [-78.55, 31.75], [-78.55, 32.1], [-78.95, 32.1], [-78.95, 31.75]]]}}, {"type": "Feature", "properties": {"fips": "13129", "name": "County 13129", "state": "GA"}, "geometry": {"type": "Polygon", "coordinates": [[[-85.7, 32.199999999999996], [-85.3, 32.199999999999996], [-85.3, 32.55], [-85.7, 32.55], [-85.7, 32.199999999999996]]]}}, {"type": "Feature", "properties": {"fips": "13131", "name": "County 13131", "state": "GA"}, "geometry": {"type": "Polygon", "coordinates": [[[-85.25, 32.199999999999996], [-84.85, 32.199999999999996], [-84.85, 32.55], [-85.25, 32.55], [-85.25, 32.199999999999996]]]}}, {"type": "Feature", "properties": {"fips": "13133", "name": "County 13133", "state": "GA"}, "geometry": {"type": "Polygon", "coordinates": [[[-84.8, 32.199999999999996], [-84.39999999999999, 32.199999999999996], [-84.39999999999999, 32.55], [-84.8, 32.55], [-84.8, 32.199999999999996]]]}}, {"type": "Feature", "properties": {"fips": "13135", "name": "Gwinnett County", "state": "GA"}, "geometry": {"type": "Polygon", "coordinates": [[[-84.35000000000001, 32.199999999999996], [-83.95, 32.199999999999996], [-83.95, 32.55], [-84.35000000000001, 32.55], [-84.35000000000001, 32.199999999999996]]]}}, {"type": "Feature", "properties": {"fips": "13137", "name": "County 13137", "state": "GA"}, "geometry": {"type": "Polygon", "coordinates": [[[-83.9, 32.199999999999996], [-83.5, 32.199999999999996], [-83.5, 32.55], [-83.9, 32.55], [-83.9, 32.199999999999996]]]}}, {"type": "Feature", "properties": {"fips": "13139", "name": "County 13139", "state": "GA"}, "geometry": {"type": "Polygon", "coordinates": [[[-83.45, 32.199999999999996], [-83.05, 32.199999999999996], [-83.05, 32.55], [-83.45, 32.55], [-83.45, 32.199999999999996]]]}}, {"type": "Feature", "properties": {"fips": "13141", "name": "County 13141", "state": "GA"}, "geometry": {"type": "Polygon", "coordinates": [[[-83.0, 32.199999999999996], [-82.6, 32.199999999999996], [-82.6, 32.55], [-83.0, 32.55], [-83.0, 32.199999999999996]]]}}, {"type": "Feature", "properties": {"fips": "13143", "name": "County 13143", "state": "GA"}, "geometry": {"type": "Polygon", "coordinates": [[[-82.55, 32.199999999999996], [-82.14999999999999, 32.199999999999996], [-82.14999999999999, 32.55], [-82.55, 32.55], [-82.55, 32.199999999999996]]]}}, {"type": "Feature", "properties": {"fips": "13145", "name": "County 13145", "state": "GA"}, "geometry": {"type": "Polygon", "coordinates": [[[-82.10000000000001, 32.199999999999996], [-81.7, 32.199999999999996], [-81.7, 32.55], [-82.10000000000001, 32.55], [-82.10000000000001, 32.199999999999996]]]}}, {"type": "Feature", "properties": {"fips": "13147", "name": "County 13147", "state": "GA"}, "geometry": {"type": "Polygon", "coordinates": [[[-81.65, 32.199999999999996], [-81.25, 32.199999999999996], [-81.25, 32.55], [-81.65, 32.55], [-81.65, 32.199999999999996]]]}}, {"type": "Feature", "properties": {"fips": "13149", "name": "County 13149", "state": "GA"}, "geometry": {"type": "Polygon", "coordinates": [[[-81.2, 32.199999999999996], [-80.8, 32.199999999999996], [-80.8, 32.55], [-81.2, 32.55], [-81.2, 32.199999999999996]]]}}, {"type": "Feature", "properties": {"fips": "13151", "name": "County 13151", "state": "GA"}, "geometry": {"type": "Polygon", "coordinates": [[[-80.75, 32.199999999999996], [-80.35, 32.199999999999996], [-80.35, 32.55], [-80.75, 32.55], [-80.75, 32.199999999999996]]]}}, {"type": "Feature", "properties": {"fips": "13153", "name": "County 13153", "state": "GA"}, "geometry": {"type": "Polygon", "coordinates": [[[-80.3, 32.199999999999996], [-79.89999999999999, 32.199999999999996], [-79.89999999999999, 32.55], [-80.3, 32.55], [-80.3, 32.199999999999996]]]}}, {"type": "Feature", "properties": {"fips": "13155", "name": "County 13155", "state": "GA"}, "geometry": {"type": "Polygon", "coordinates": [[[-79.85000000000001, 32.199999999999996], [-79.45, 32.199999999999996], [-79.45, 32.55], [-79.85000000000001, 32.55], [-79.85000000000001, 32.199999999999996]]]}}, {"type": "Feature", "properties": {"fips": "13157", "name": "County 13157", "state": "GA"}, "geometry": {"type": "Polygon", "coordinates": [[[-79.4, 32.199999999999996], [-79.0, 32.199999999999996], [-79.0, 32.55], [-79.4, 32.55], [-79.4, 32.199999999999996]]]}}, {"type": "Feature", "properties": {"fips": "13159", "name": "County 13159", "state": "GA"}, "geometry": {"type": "Polygon", "coordinates": [[[-78.95, 32.199999999999996], [-78.55, 32.199999999999996], [-78.55, 32.55], [-78.95, 32.55], [-78.95, 32.199999999999996]]]}}, {"type": "Feature", "properties": {"fips": "13161", "name": "County 13161", "state": "GA"}, "geometry": {"type": "Polygon", "coordinates": [[[-85.7, 32.65], [-85.3, 32.65], [-85.3, 33.0], [-85.7, 33.0], [-85.7, 32.65]]]}}, {"type": "Feature", "properties": {"fips": "13163", "name": "County 13163", "state": "GA"}, "geometry": {"type": "Polygon", "coordinates": [[[-85.25, 32.65], [-84.85, 32.65], [-84.85, 33.0], [-85.25, 33.0], [-85.25, 32.65]]]}}, {"type": "Feature", "properties": {"fips": "13165", "name": "County 13165", "state": "GA"}, "geometry": {"type": "Polygon", "coordinates": [[[-84.8, 32.65], [-84.39999999999999, 32.65], [-84.39999999999999, 33.0], [-84.8, 33.0], [-84.8, 32.65]]]}}, {"type": "Feature", "properties": {"fips": "13167", "name": "County 13167", "state": "GA"}, "geometry": {"type": "Polygon", "coordinates": [[[-84.35000000000001, 32.65], [-83.95, 32.65], [-83.95, 33.0], [-84.35000000000001, 33.0], [-84.35000000000001, 32.65]]]}}, {"type": "Feature", "properties": {"fips": "13169", "name": "County 13169", "state": "GA"}, "geometry": {"type": "Polygon", "coordinates": [[[-83.9, 32.65], [-83.5, 32.65], [-83.5, 33.0], [-83.9, 33.0], [-83.9, 32.65]]]}}, {"type": "Feature", "properties": {"fips": "13171", "name": "County 13171", "state": "GA"}, "geometry": {"type": "Polygon", "coordinates": [[[-83.45, 32.65], [-83.05, 32.65], [-83.05, 33.0], [-83.45, 33.0], [-83.45, 32.65]]]}}, {"type": "Feature", "properties": {"fips": "13173", "name": "County 13173", "state": "GA"}, "geometry": {"type": "Polygon", "coordinates": [[[-83.0, 32.65], [-82.6, 32.65], [-82.6, 33.0], [-83.0, 33.0], [-83.0, 32.65]]]}}, {"type": "Feature", "properties": {"fips": "13175", "name": "County 13175", "state": "GA"}, "geometry": {"type": "Polygon", "coordinates": [[[-82.55, 32.65], [-82.14999999999999, 32.65], [-82.14999999999999, 33.0], [-82.55, 33.0], [-82.55, 32.65]]]}}, {"type": "Feature", "properties": {"fips": "13177", "name": "County 13177", "state": "GA"}, "geometry": {"type": "Polygon", "coordinates": [[[-82.10000000000001, 32.65], [-81.7, 32.65], [-81.7, 33.0], [-82.10000000000001, 33.0], [-82.10000000000001, 32.65]]]}}, {"type": "Feature", "properties": {"fips": "13179", "name": "County 13179", "state": "GA"}, "geometry": {"type": "Polygon", "coordinates": [[[-81.65, 32.65], [-81.25, 32.65], [-81.25, 33.0], [-81.65, 33.0], [-81.65, 32.65]]]}}, {"type": "Feature", "properties": {"fips": "13181", "name": "County 13181", "state": "GA"}, "geometry": {"type": "Polygon", "coordinates": [[[-81.2, 32.65], [-80.8, 32.65], [-80.8, 33.0], [-81.2, 33.0], [-81.2, 32.65]]]}}, {"type": "Feature", "properties": {"fips": "13183", "name": "County 13183", "state": "GA"}, "geometry": {"type": "Polygon", "coordinates": [[[-80.75, 32.65], [-80.35, 32.65], [-80.35, 33.0], [-80.75, 33.0], [-80.75, 32.65]]]}}, {"type": "Feature", "properties": {"fips": "13185", "name": "County 13185", "state": "GA"}, "geometry": {"type": "Polygon", "coordinates": [[[-80.3, 32.65], [-79.89999999999999, 32.65], [-79.89999999999999, 33.0], [-80.3, 33.0], [-80.3, 32.65]]]}}, {"type": "Feature", "properties": {"fips": "13187", "name": "County 13187", "state": "GA"}, "geometry": {"type": "Polygon", "coordinates": [[[-79.85000000000001, 32.65], [-79.45, 32.65], [-79.45, 33.0], [-79.85000000000001, 33.0], [-79.85000000000001, 32.65]]]}}, {"type": "Feature", "properties": {"fips": "13189", "name": "County 13189", "state": "GA"}, "geometry": {"type": "Polygon", "coordinates": [[[-79.4, 32.65], [-79.0, 32.65], [-79.0, 33.0], [-79.4, 33.0], [-79.4, 32.65]]]}}, {"type": "Feature", "properties": {"fips": "13191", "name": "County 13191", "state": "GA"}, "geometry": {"type": "Polygon", "coordinates": [[[-78.95, 32.65], [-78.55, 32.65], [-78.55, 33.0], [-78.95, 33.0], [-78.95, 32.65]]]}}, {"type": "Feature", "properties": {"fips": "13193", "name": "County 13193", "state": "GA"}, "geometry": {"type": "Polygon", "coordinates": [[[-85.7, 33.1], [-85.3, 33.1], [-85.3, 33.45], [-85.7, 33.45], [-85.7, 33.1]]]}}, {"type": "Feature", "properties": {"fips": "13195", "name": "County 13195", "state": "GA"}, "geometry": {"type": "Polygon", "coordinates": [[[-85.25, 33.1], [-84.85, 33.1], [-84.85, 33.45], [-85.25, 33.45], [-85.25, 33.1]]]}}, {"type": "Feature", "properties": {"fips": "13197", "name": "County 13197", "state": "GA"}, "geometry": {"type": "Polygon", "coordinates": [[[-84.8, 33.1], [-84.39999999999999, 33.1], [-84.39999999999999, 33.45], [-84.8, 33.45], [-84.8, 33.1]]]}}, {"type": "Feature", "properties": {"fips": "13199", "name": "County 13199", "state": "GA"}, "geometry": {"type": "Polygon", "coordinates": [[[-84.35000000000001, 33.1], [-83.95, 33.1], [-83.95, 33.45], [-84.35000000000001, 33.45], [-84.35000000000001, 33.1]]]}}, {"type": "Feature", "properties": {"fips": "13201", "name": "County 13201", "state": "GA"}, "geometry": {"type": "Polygon", "coordinates": [[[-83.9, 33.1], [-83.5, 33.1], [-83.5, 33.45], [-83.9, 33.45], [-83.9, 33.1]]]}}, {"type": "Feature", "properties": {"fips": "13203", "name": "County 13203", "state": "GA"}, "geometry": {"type": "Polygon", "coordinates": [[[-83.45, 33.1], [-83.05, 33.1], [-83.05, 33.45], [-83.45, 33.45], [-83.45, 33.1]]]}}, {"type": "Feature", "properties": {"fips": "13205", "name": "County 13205", "state": "GA"}, "geometry": {"type": "Polygon", "coordinates": [[[-83.0, 33.1], [-82.6, 33.1], [-82.6, 33.45], [-83.0, 33.45], [-83.0, 33.1]]]}}, {"type": "Feature", "properties": {"fips": "13207", "name": "County 13207", "state": "GA"}, "geometry": {"type": "Polygon", "coordinates": [[[-82.55, 33.1], [-82.14999999999999, 33.1], [-82.14999999999999, 33.45], [-82.55, 33.45], [-82.55, 33.1]]]}}, {"type": "Feature", "properties": {"fips": "13209", "name": "County 13209", "state": "GA"}, "geometry": {"type": "Polygon", "coordinates": [[[-82.10000000000001, 33.1], [-81.7, 33.1], [-81.7, 33.45], [-82.10000000000001, 33.45], [-82.10000000000001, 33.1]]]}}, {"type": "Feature", "properties": {"fips": "13211", "name": "County 13211", "state": "GA"}, "geometry": {"type": "Polygon", "coordinates": [[[-81.65, 33.1], [-81.25, 33.1], [-81.25, 33.45], [-81.65, 33.45], [-81.65, 33.1]]]}}, {"type": "Feature", "properties": {"fips": "13213", "name": "County 13213", "state": "GA"}, "geometry": {"type": "Polygon", "coordinates": [[[-81.2, 33.1], [-80.8, 33.1], [-80.8, 33.45], [-81.2, 33.45], [-81.2, 33.1]]]}}, {"type": "Feature", "properties": {"fips": "13215", "name": "County 13215", "state": "GA"}, "geometry": {"type": "Polygon", "coordinates": [[[-80.75, 33.1], [-80.35, 33.1], [-80.35, 33.45], [-80.75, 33.45], [-80.75, 33.1]]]}}, {"type": "Feature", "properties": {"fips": "13217", "name": "County 13217", "state": "GA"}, "geometry": {"type": "Polygon", "coordinates": [[[-80.3, 33.1], [-79.89999999999999, 33.1], [-79.89999999999999, 33.45], [-80.3, 33.45], [-80.3, 33.1]]]}}, {"type": "Feature", "properties": {"fips": "13219", "name": "County 13219", "state": "GA"}, "geometry": {"type": "Polygon", "coordinates": [[[-79.85000000000001, 33.1], [-79.45, 33.1], [-79.45, 33.45], [-79.85000000000001, 33.45], [-79.85000000000001, 33.1]]]}}, {"type": "Feature", "properties": {"fips": "13221", "name": "County 13221", "state": "GA"}, "geometry": {"type": "Polygon", "coordinates": [[[-79.4, 33.1], [-79.0, 33.1], [-79.0, 33.45], [-79.4, 33.45], [-79.4, 33.1]]]}}, {"type": "Feature", "properties": {"fips": "13223", "name": "County 13223", "state": "GA"}, "geometry": {"type": "Polygon", "coordinates": [[[-78.95, 33.1], [-78.55, 33.1], [-78.55, 33.45], [-78.95, 33.45], [-78.95, 33.1]]]}}, {"type": "Feature", "properties": {"fips": "13225", "name": "County 13225", "state": "GA"}, "geometry": {"type": "Polygon", "coordinates": [[[-85.7, 33.55], [-85.3, 33.55], [-85.3, 33.9], [-85.7, 33.9], [-85.7, 33.55]]]}}, {"type": "Feature", "properties": {"fips": "13227", "name": "County 13227", "state": "GA"}, "geometry": {"type": "Polygon", "coordinates": [[[-85.25, 33.55], [-84.85, 33.55], [-84.85, 33.9], [-85.25, 33.9], [-85.25, 33.55]]]}}, {"type": "Feature", "properties": {"fips": "13229", "name": "County 13229", "state": "GA"}, "geometry": {"type": "Polygon", "coordinates": [[[-84.8, 33.55], [-84.39999999999999, 33.55], [-84.39999999999999, 33.9], [-84.8, 33.9], [-84.8, 33.55]]]}}, {"type": "Feature", "properties": {"fips": "13231", "name": "County 13231", "state": "GA"}, "geometry": {"type": "Polygon", "coordinates": [[[-84.35000000000001, 33.55], [-83.95, 33.55], [-83.95, 33.9], [-84.35000000000001, 33.9], [-84.35000000000001, 33.55]]]}}, {"type": "Feature", "properties": {"fips": "13233", "name": "County 13233", "state": "GA"}, "geometry": {"type": "Polygon", "coordinates": [[[-83.9, 33.55], [-83.5, 33.55], [-83.5, 33.9], [-83.9, 33.9], [-83.9, 33.55]]]}}, {"type": "Feature", "properties": {"fips": "13235", "name": "County 13235", "state": "GA"}, "geometry": {"type": "Polygon", "coordinates": [[[-83.45, 33.55], [-83.05, 33.55], [-83.05, 33.9], [-83.45, 33.9], [-83.45, 33.55]]]}}, {"type": "Feature", "properties": {"fips": "13237", "name": "County 13237", "state": "GA"}, "geometry": {"type": "Polygon", "coordinates": [[[-83.0, 33.55], [-82.6, 33.55], [-82.6, 33.9], [-83.0, 33.9], [-83.0, 33.55]]]}}, {"type": "Feature", "properties": {"fips": "13239", "name": "County 13239", "state": "GA"}, "geometry": {"type": "Polygon", "coordinates": [[[-82.55, 33.55], [-82.14999999999999, 33.55], [-82.14999999999999, 33.9], [-82.55, 33.9], [-82.55, 33.55]]]}}, {"type": "Feature", "properties": {"fips": "13241", "name": "County 13241", "state": "GA"}, "geometry": {"type": "Polygon", "coordinates": [[[-82.10000000000001, 33.55], [-81.7, 33.55], [-81.7, 33.9], [-82.10000000000001, 33.9], [-82.10000000000001, 33.55]]]}}, {"type": "Feature", "properties": {"fips": "13243", "name": "County 13243", "state": "GA"}, "geometry": {"type": "Polygon", "coordinates": [[[-81.65, 33.55], [-81.25, 33.55], [-81.25, 33.9], [-81.65, 33.9], [-81.65, 33.55]]]}}, {"type": "Feature", "properties": {"fips": "13245", "name": "County 13245", "state": "GA"}, "geometry": {"type": "Polygon", "coordinates": [[[-81.2, 33.55], [-80.8, 33.55], [-80.8, 33.9], [-81.2, 33.9], [-81.2, 33.55]]]}}, {"type": "Feature", "properties": {"fips": "13247", "name": "County 13247", "state": "GA"}, "geometry": {"type": "Polygon", "coordinates": [[[-80.75, 33.55], [-80.35, 33.55], [-80.35, 33.9], [-80.75, 33.9], [-80.75, 33.55]]]}}, {"type": "Feature", "properties": {"fips": "13249", "name": "County 13249", "state": "GA"}, "geometry": {"type": "Polygon", "coordinates": [[[-80.3, 33.55], [-79.89999999999999, 33.55], [-79.89999999999999, 33.9], [-80.3, 33.9], [-80.3, 33.55]]]}}, {"type": "Feature", "properties": {"fips": "13251", "name": "County 13251", "state": "GA"}, "geometry": {"type": "Polygon", "coordinates": [[[-79.85000000000001, 33.55], [-79.45, 33.55], [-79.45, 33.9], [-79.85000000000001, 33.9], [-79.85000000000001, 33.55]]]}}, {"type": "Feature", "properties": {"fips": "13253", "name": "County 13253", "state": "GA"}, "geometry": {"type": "Polygon", "coordinates": [[[-79.4, 33.55], [-79.0, 33.55], [-79.0, 33.9], [-79.4, 33.9], [-79.4, 33.55]]]}}, {"type": "Feature", "properties": {"fips": "13255", "name": "County 13255", "state": "GA"}, "geometry": {"type": "Polygon", "coordinates": [[[-78.95, 33.55], [-78.55, 33.55], [-78.55, 33.9], [-78.95, 33.9], [-78.95, 33.55]]]}}, {"type": "Feature", "properties": {"fips": "13257", "name": "County 13257", "state": "GA"}, "geometry": {"type": "Polygon", "coordinates": [[[-85.7, 34.0], [-85.3, 34.0], [-85.3, 34.35], [-85.7, 34.35], [-85.7, 34.0]]]}}, {"type": "Feature", "properties": {"fips": "13259", "name": "County 13259", "state": "GA"}, "geometry": {"type": "Polygon", "coordinates": [[[-85.25, 34.0], [-84.85, 34.0], [-84.85, 34.35], [-85.25, 34.35], [-85.25, 34.0]]]}}, {"type": "Feature", "properties": {"fips": "13261", "name": "County 13261", "state": "GA"}, "geometry": {"type": "Polygon", "coordinates": [[[-84.8, 34.0], [-84.39999999999999, 34.0], [-84.39999999999999, 34.35], [-84.8, 34.35], [-84.8, 34.0]]]}}, {"type": "Feature", "properties": {"fips": "13263", "name": "County 13263", "state": "GA"}, "geometry": {"type": "Polygon", "coordinates": [[[-84.35000000000001, 34.0], [-83.95, 34.0], [-83.95, 34.35], [-84.35000000000001, 34.35], [-84.35000000000001, 34.0]]]}}, {"type": "Feature", "properties": {"fips": "13265", "name": "County 13265", "state": "GA"}, "geometry": {"type": "Polygon", "coordinates": [[[-83.9, 34.0], [-83.5, 34.0], [-83.5, 34.35], [-83.9, 34.35], [-83.9, 34.0]]]}}, {"type": "Feature", "properties": {"fips": "13267", "name": "County 13267", "state": "GA"}, "geometry": {"type": "Polygon", "coordinates": [[[-83.45, 34.0], [-83.05, 34.0], [-83.05, 34.35], [-83.45, 34.35], [-83.45, 34.0]]]}}, {"type": "Feature", "properties": {"fips": "13269", "name": "County 13269", "state": "GA"}, "geometry": {"type": "Polygon", "coordinates": [[[-83.0, 34.0], [-82.6, 34.0], [-82.6, 34.35], [-83.0, 34.35], [-83.0, 34.0]]]}}, {"type": "Feature", "properties": {"fips": "13271", "name": "County 13271", "state": "GA"}, "geometry": {"type": "Polygon", "coordinates": [[[-82.55, 34.0], [-82.14999999999999, 34.0], [-82.14999999999999, 34.35], [-82.55, 34.35], [-82.55, 34.0]]]}}, {"type": "Feature", "properties": {"fips": "13273", "name": "County 13273", "state": "GA"}, "geometry": {"type": "Polygon", "coordinates": [[[-82.10000000000001, 34.0], [-81.7, 34.0], [-81.7, 34.35], [-82.10000000000001, 34.35], [-82.10000000000001, 34.0]]]}}, {"type": "Feature", "properties": {"fips": "13275", "name": "County 13275", "state": "GA"}, "geometry": {"type": "Polygon", "coordinates": [[[-81.65, 34.0], [-81.25, 34.0], [-81.25, 34.35], [-81.65, 34.35], [-81.65, 34.0]]]}}, {"type": "Feature", "properties": {"fips": "13277", "name": "County 13277", "state": "GA"}, "geometry": {"type": "Polygon", "coordinates": [[[-81.2, 34.0], [-80.8, 34.0], [-80.8, 34.35], [-81.2, 34.35], [-81.2, 34.0]]]}}, {"type": "Feature", "properties": {"fips": "13279", "name": "County 13279", "state": "GA"}, "geometry": {"type": "Polygon", "coordinates": [[[-80.75, 34.0], [-80.35, 34.0], [-80.35, 34.35], [-80.75, 34.35], [-80.75, 34.0]]]}}, {"type": "Feature", "properties": {"fips": "13281", "name": "County 13281", "state": "GA"}, "geometry": {"type": "Polygon", "coordinates": [[[-80.3, 34.0], [-79.89999999999999, 34.0], [-79.89999999999999, 34.35], [-80.3, 34.35], [-80.3, 34.0]]]}}, {"type": "Feature", "properties": {"fips": "13283", "name": "County 13283", "state": "GA"}, "geometry": {"type": "Polygon", "coordinates": [[[-79.85000000000001, 34.0], [-79.45, 34.0], [-79.45, 34.35], [-79.85000000000001, 34.35], [-79.85000000000001, 34.0]]]}}, {"type": "Feature", "properties": {"fips": "13285", "name": "County 13285", "state": "GA"}, "geometry": {"type": "Polygon", "coordinates": [[[-79.4, 34.0], [-79.0, 34.0], [-79.0, 34.35], [-79.4, 34.35], [-79.4, 34.0]]]}}, {"type": "Feature", "properties": {"fips": "13287", "name": "County 13287", "state": "GA"}, "geometry": {"type": "Polygon", "coordinates": [[[-78.95, 34.0], [-78.55, 34.0], [-78.55, 34.35], [-78.95, 34.35], [-78.95, 34.0]]]}}, {"type": "Feature", "properties": {"fips": "13289", "name": "County 13289", "state": "GA"}, "geometry": {"type": "Polygon", "coordinates": [[[-85.7, 34.449999999999996], [-85.3, 34.449999999999996], [-85.3, 34.8], [-85.7, 34.8], [-85.7, 34.449999999999996]]]}}, {"type": "Feature", "properties": {"fips": "13291", "name": "County 13291", "state": "GA"}, "geometry": {"type": "Polygon", "coordinates": [[[-85.25, 34.449999999999996], [-84.85, 34.449999999999996], [-84.85, 34.8], [-85.25, 34.8], [-85.25, 34.449999999999996]]]}}, {"type": "Feature", "properties": {"fips": "13293", "name": "County 13293", "state": "GA"}, "geometry": {"type": "Polygon", "coordinates": [[[-84.8, 34.449999999999996], [-84.39999999999999, 34.449999999999996], [-84.39999999999999, 34.8], [-84.8, 34.8], [-84.8, 34.449999999999996]]]}}, {"type": "Feature", "properties": {"fips": "13295", "name": "County 13295", "state": "GA"}, "geometry": {"type": "Polygon", "coordinates": [[[-84.35000000000001, 34.449999999999996], [-83.95, 34.449999999999996], [-83.95, 34.8], [-84.35000000000001, 34.8], [-84.35000000000001, 34.449999999999996]]]}}, {"type": "Feature", "properties": {"fips": "13297", "name": "County 13297", "state": "GA"}, "geometry": {"type": "Polygon", "coordinates": [[[-83.9, 34.449999999999996], [-83.5, 34.449999999999996], [-83.5, 34.8], [-83.9, 34.8], [-83.9, 34.449999999999996]]]}}, {"type": "Feature", "properties": {"fips": "13299", "name": "County 13299", "state": "GA"}, "geometry": {"type": "Polygon", "coordinates": [[[-83.45, 34.449999999999996], [-83.05, 34.449999999999996], [-83.05, 34.8], [-83.45, 34.8], [-83.45, 34.449999999999996]]]}}, {"type": "Feature", "properties": {"fips": "13301", "name": "County 13301", "state": "GA"}, "geometry": {"type": "Polygon", "coordinates": [[[-83.0, 34.449999999999996], [-82.6, 34.449999999999996], [-82.6, 34.8], [-83.0, 34.8], [-83.0, 34.449999999999996]]]}}, {"type": "Feature", "properties": {"fips": "13303", "name": "County 13303", "state": "GA"}, "geometry": {"type": "Polygon", "coordinates": [[[-82.55, 34.449999999999996], [-82.14999999999999, 34.449999999999996], [-82.14999999999999, 34.8], [-82.55, 34.8], [-82.55, 34.449999999999996]]]}}, {"type": "Feature", "properties": {"fips": "13305", "name": "County 13305", "state": "GA"}, "geometry": {"type": "Polygon", "coordinates": [[[-82.10000000000001, 34.449999999999996], [-81.7, 34.449999999999996], [-81.7, 34.8], [-82.10000000000001, 34.8], [-82.10000000000001, 34.449999999999996]]]}}, {"type": "Feature", "properties": {"fips": "13307", "name": "County 13307", "state": "GA"}, "geometry": {"type": "Polygon", "coordinates": [[[-81.65, 34.449999999999996], [-81.25, 34.449999999999996], [-81.25, 34.8], [-81.65, 34.8], [-81.65, 34.449999999999996]]]}}, {"type": "Feature", "properties": {"fips": "13309", "name": "County 13309", "state": "GA"}, "geometry": {"type": "Polygon", "coordinates": [[[-81.2, 34.449999999999996], [-80.8, 34.449999999999996], [-80.8, 34.8], [-81.2, 34.8], [-81.2, 34.449999999999996]]]}}, {"type": "Feature", "properties": {"fips": "13311", "name": "County 13311", "state": "GA"}, "geometry": {"type": "Polygon", "coordinates": [[[-80.75, 34.449999999999996], [-80.35, 34.449999999999996], [-80.35, 34.8], [-80.75, 34.8], [-80.75, 34.449999999999996]]]}}, {"type": "Feature", "properties": {"fips": "13313", "name": "County 13313", "state": "GA"}, "geometry": {"type": "Polygon", "coordinates": [[[-80.3, 34.449999999999996], [-79.89999999999999, 34.449999999999996], [-79.89999999999999, 34.8], [-80.3, 34.8], [-80.3, 34.449999999999996]]]}}, {"type": "Feature", "properties": {"fips": "13315", "name": "County 13315", "state": "GA"}, "geometry": {"type": "Polygon", "coordinates": [[[-79.85000000000001, 34.449999999999996], [-79.45, 34.449999999999996], [-79.45, 34.8], [-79.85000000000001, 34.8], [-79.85000000000001, 34.449999999999996]]]}}, {"type": "Feature", "properties": {"fips": "13317", "name": "County 13317", "state": "GA"}, "geometry": {"type": "Polygon", "coordinates": [[[-79.4, 34.449999999999996], [-79.0, 34.449999999999996], [-79.0, 34.8], [-79.4, 34.8], [-79.4, 34.449999999999996]]]}}]}